start=new Date('2022-10-05T00:00:00.000Z').valueOf();
sats=[{"SITE":"AFETR","OBJECT_TYPE":"PAYLOAD","TIME_SYSTEM":"UTC","DECAY_DATE":null,"MEAN_MOTION_DDOT":"0.0000000000000","REV_AT_EPOCH":"12750","OBJECT_ID":"2020-038E","TLE_LINE1":"1 45734U 20038E   22277.77884146  .00017012  00000-0  11264-2 0  9998","FILE":"3591597","EPOCH":"2022-10-04T18:41:31.902144","GP_ID":"214188958","MEAN_MOTION":"15.07433604","MEAN_ANOMALY":"253.1584","SEMIMAJOR_AXIS":"6922.183","PERIOD":"95.527","COUNTRY_CODE":"US","NORAD_CAT_ID":"45734","BSTAR":"0.00112640000000","ELEMENT_SET_NO":"999","RCS_SIZE":"LARGE","OBJECT_NAME":"STARLINK-1468","MEAN_MOTION_DOT":"0.00017012","RA_OF_ASC_NODE":"96.5232","TLE_LINE2":"2 45734  53.0541  96.5232 0001773 106.9600 253.1584 15.07433604127506","ECCENTRICITY":"0.00017730","REF_FRAME":"TEME","EPHEMERIS_TYPE":"0","PERIAPSIS":"542.820","INCLINATION":"53.0541","CLASSIFICATION_TYPE":"U","LAUNCH_DATE":"2020-06-13","ARG_OF_PERICENTER":"106.9600","CENTER_NAME":"EARTH","APOAPSIS":"545.275","MEAN_ELEMENT_THEORY":"SGP4"},{"SITE":"AFETR","OBJECT_TYPE":"PAYLOAD","MEAN_MOTION_DDOT":"0.0000000000000","TIME_SYSTEM":"UTC","DECAY_DATE":null,"REV_AT_EPOCH":"12749","TLE_LINE1":"1 45735U 20038F   22277.76368186  .00002044  00000-0  15605-3 0  9992","OBJECT_ID":"2020-038F","FILE":"3591597","EPOCH":"2022-10-04T18:19:42.112704","GP_ID":"214188207","MEAN_MOTION":"15.06399955","MEAN_ANOMALY":"263.4595","SEMIMAJOR_AXIS":"6925.349","PERIOD":"95.592","NORAD_CAT_ID":"45735","COUNTRY_CODE":"US","BSTAR":"0.00015605000000","ELEMENT_SET_NO":"999","RA_OF_ASC_NODE":"96.7403","OBJECT_NAME":"STARLINK-1471","RCS_SIZE":"LARGE","MEAN_MOTION_DOT":"0.00002044","TLE_LINE2":"2 45735  53.0530  96.7403 0001394  96.6553 263.4595 15.06399955127491","ECCENTRICITY":"0.00013940","REF_FRAME":"TEME","EPHEMERIS_TYPE":"0","CLASSIFICATION_TYPE":"U","PERIAPSIS":"546.248","INCLINATION":"53.0530","LAUNCH_DATE":"2020-06-13","ARG_OF_PERICENTER":"96.6553","CENTER_NAME":"EARTH","MEAN_ELEMENT_THEORY":"SGP4","APOAPSIS":"548.179"},{"DECAY_DATE":null,"TIME_SYSTEM":"UTC","MEAN_MOTION_DDOT":"0.0000000000000","REV_AT_EPOCH":"12826","SITE":"AFETR","OBJECT_TYPE":"PAYLOAD","OBJECT_ID":"2020-038G","TLE_LINE1":"1 45736U 20038G   22277.79284533  .00099049  00000-0  23579-2 0  9998","FILE":"3591597","MEAN_MOTION":"15.40832022","EPOCH":"2022-10-04T19:01:41.836512","GP_ID":"214188457","PERIOD":"93.456","BSTAR":"0.00235790000000","COUNTRY_CODE":"US","ELEMENT_SET_NO":"999","NORAD_CAT_ID":"45736","MEAN_ANOMALY":"22.6271","SEMIMAJOR_AXIS":"6821.789","ECCENTRICITY":"0.00014700","REF_FRAME":"TEME","OBJECT_NAME":"STARLINK-1472","RCS_SIZE":"LARGE","MEAN_MOTION_DOT":"0.00099049","RA_OF_ASC_NODE":"43.1946","TLE_LINE2":"2 45736  53.0624  43.1946 0001470 337.4668  22.6271 15.40832022128269","INCLINATION":"53.0624","PERIAPSIS":"442.652","CLASSIFICATION_TYPE":"U","EPHEMERIS_TYPE":"0","LAUNCH_DATE":"2020-06-13","ARG_OF_PERICENTER":"337.4668","CENTER_NAME":"EARTH","MEAN_ELEMENT_THEORY":"SGP4","APOAPSIS":"444.657"},{"FILE":"3591597","TLE_LINE1":"1 45738U 20038J   22277.61993500  .00003887  00000-0  27972-3 0  9999","OBJECT_ID":"2020-038J","REV_AT_EPOCH":"12747","MEAN_MOTION_DDOT":"0.0000000000000","DECAY_DATE":null,"TIME_SYSTEM":"UTC","OBJECT_TYPE":"PAYLOAD","SITE":"AFETR","ELEMENT_SET_NO":"999","COUNTRY_CODE":"US","BSTAR":"0.00027972000000","NORAD_CAT_ID":"45738","PERIOD":"95.592","MEAN_ANOMALY":"264.9707","SEMIMAJOR_AXIS":"6925.355","MEAN_MOTION":"15.06397980","EPOCH":"2022-10-04T14:52:42.384000","GP_ID":"214188708","CLASSIFICATION_TYPE":"U","INCLINATION":"53.0533","PERIAPSIS":"546.313","EPHEMERIS_TYPE":"0","REF_FRAME":"TEME","ECCENTRICITY":"0.00013100","TLE_LINE2":"2 45738  53.0533  97.3887 0001310  95.1431 264.9707 15.06397980127472","RA_OF_ASC_NODE":"97.3887","MEAN_MOTION_DOT":"0.00003887","RCS_SIZE":"LARGE","OBJECT_NAME":"STARLINK-1474","MEAN_ELEMENT_THEORY":"SGP4","APOAPSIS":"548.127","CENTER_NAME":"EARTH","ARG_OF_PERICENTER":"95.1431","LAUNCH_DATE":"2020-06-13"},{"OBJECT_ID":"2020-038K","TLE_LINE1":"1 45739U 20038K   22277.56738003  .00000831  00000-0  74705-4 0  9992","FILE":"3591309","SITE":"AFETR","OBJECT_TYPE":"PAYLOAD","DECAY_DATE":null,"TIME_SYSTEM":"UTC","MEAN_MOTION_DDOT":"0.0000000000000","REV_AT_EPOCH":"12899","MEAN_ANOMALY":"287.4435","SEMIMAJOR_AXIS":"6925.347","PERIOD":"95.592","BSTAR":"0.00007470500000","COUNTRY_CODE":"US","ELEMENT_SET_NO":"999","NORAD_CAT_ID":"45739","EPOCH":"2022-10-04T13:37:01.634592","GP_ID":"214163586","MEAN_MOTION":"15.06400351","EPHEMERIS_TYPE":"0","PERIAPSIS":"546.196","INCLINATION":"53.0574","CLASSIFICATION_TYPE":"U","MEAN_MOTION_DOT":"0.00000831","RCS_SIZE":"LARGE","OBJECT_NAME":"STARLINK-1475","RA_OF_ASC_NODE":"57.6109","TLE_LINE2":"2 45739  53.0574  57.6109 0001468  72.6714 287.4435 15.06400351128995","ECCENTRICITY":"0.00014680","REF_FRAME":"TEME","CENTER_NAME":"EARTH","APOAPSIS":"548.229","MEAN_ELEMENT_THEORY":"SGP4","LAUNCH_DATE":"2020-06-13","ARG_OF_PERICENTER":"72.6714"},{"ECCENTRICITY":"0.00011630","REF_FRAME":"TEME","RCS_SIZE":"LARGE","OBJECT_NAME":"STARLINK-1479","MEAN_MOTION_DOT":"0.00001274","RA_OF_ASC_NODE":"96.4609","TLE_LINE2":"2 45740  53.0537  96.4609 0001163  97.6059 262.5062 15.06401170127509","INCLINATION":"53.0537","PERIAPSIS":"546.405","CLASSIFICATION_TYPE":"U","EPHEMERIS_TYPE":"0","LAUNCH_DATE":"2020-06-13","ARG_OF_PERICENTER":"97.6059","CENTER_NAME":"EARTH","MEAN_ELEMENT_THEORY":"SGP4","APOAPSIS":"548.015","TIME_SYSTEM":"UTC","DECAY_DATE":null,"MEAN_MOTION_DDOT":"0.0000000000000","REV_AT_EPOCH":"12750","SITE":"AFETR","OBJECT_TYPE":"PAYLOAD","OBJECT_ID":"2020-038L","TLE_LINE1":"1 45740U 20038L   22277.82634319  .00001274  00000-0  10441-3 0  9996","FILE":"3591597","MEAN_MOTION":"15.06401170","EPOCH":"2022-10-04T19:49:56.051616","GP_ID":"214187707","PERIOD":"95.592","COUNTRY_CODE":"US","ELEMENT_SET_NO":"999","BSTAR":"0.00010441000000","NORAD_CAT_ID":"45740","MEAN_ANOMALY":"262.5062","SEMIMAJOR_AXIS":"6925.345"},{"EPHEMERIS_TYPE":"0","INCLINATION":"53.0527","PERIAPSIS":"546.312","CLASSIFICATION_TYPE":"U","TLE_LINE2":"2 45741  53.0527  96.2851 0001303  86.2284 273.8854 15.06399587127520","RCS_SIZE":"LARGE","OBJECT_NAME":"STARLINK-1480","MEAN_MOTION_DOT":"0.00001327","RA_OF_ASC_NODE":"96.2851","REF_FRAME":"TEME","ECCENTRICITY":"0.00013030","APOAPSIS":"548.117","MEAN_ELEMENT_THEORY":"SGP4","CENTER_NAME":"EARTH","ARG_OF_PERICENTER":"86.2284","LAUNCH_DATE":"2020-06-13","FILE":"3591597","OBJECT_ID":"2020-038M","TLE_LINE1":"1 45741U 20038M   22277.86320038  .00001327  00000-0  10794-3 0  9991","OBJECT_TYPE":"PAYLOAD","SITE":"AFETR","REV_AT_EPOCH":"12752","TIME_SYSTEM":"UTC","DECAY_DATE":null,"MEAN_MOTION_DDOT":"0.0000000000000","SEMIMAJOR_AXIS":"6925.350","MEAN_ANOMALY":"273.8854","COUNTRY_CODE":"US","BSTAR":"0.00010794000000","NORAD_CAT_ID":"45741","ELEMENT_SET_NO":"999","PERIOD":"95.592","GP_ID":"214187957","EPOCH":"2022-10-04T20:43:00.512832","MEAN_MOTION":"15.06399587"},{"CENTER_NAME":"EARTH","MEAN_ELEMENT_THEORY":"SGP4","APOAPSIS":"548.291","LAUNCH_DATE":"2020-06-13","ARG_OF_PERICENTER":"95.7331","INCLINATION":"53.0543","PERIAPSIS":"546.140","CLASSIFICATION_TYPE":"U","EPHEMERIS_TYPE":"0","ECCENTRICITY":"0.00015530","REF_FRAME":"TEME","OBJECT_NAME":"STARLINK-1481","RCS_SIZE":"LARGE","MEAN_MOTION_DOT":"0.00002333","RA_OF_ASC_NODE":"96.6087","TLE_LINE2":"2 45742  53.0543  96.6087 0001553  95.7331 264.3835 15.06399214127496","PERIOD":"95.592","BSTAR":"0.00017548000000","COUNTRY_CODE":"US","ELEMENT_SET_NO":"999","NORAD_CAT_ID":"45742","SEMIMAJOR_AXIS":"6925.351","MEAN_ANOMALY":"264.3835","MEAN_MOTION":"15.06399214","GP_ID":"214189209","EPOCH":"2022-10-04T18:56:51.245664","OBJECT_ID":"2020-038N","TLE_LINE1":"1 45742U 20038N   22277.78948201  .00002333  00000-0  17548-3 0  9993","FILE":"3591597","DECAY_DATE":null,"TIME_SYSTEM":"UTC","MEAN_MOTION_DDOT":"0.0000000000000","REV_AT_EPOCH":"12749","SITE":"AFETR","OBJECT_TYPE":"PAYLOAD"},{"TLE_LINE1":"1 45743U 20038P   22277.87330578  .00000490  00000-0  51816-4 0  9995","OBJECT_ID":"2020-038P","FILE":"3591597","SITE":"AFETR","OBJECT_TYPE":"PAYLOAD","MEAN_MOTION_DDOT":"0.0000000000000","DECAY_DATE":null,"TIME_SYSTEM":"UTC","REV_AT_EPOCH":"12751","SEMIMAJOR_AXIS":"6925.354","MEAN_ANOMALY":"294.0917","PERIOD":"95.592","BSTAR":"0.00005181600000","COUNTRY_CODE":"US","NORAD_CAT_ID":"45743","ELEMENT_SET_NO":"999","EPOCH":"2022-10-04T20:57:33.619392","GP_ID":"214188959","MEAN_MOTION":"15.06398313","EPHEMERIS_TYPE":"0","CLASSIFICATION_TYPE":"U","INCLINATION":"53.0532","PERIAPSIS":"546.215","RA_OF_ASC_NODE":"96.1743","MEAN_MOTION_DOT":"0.00000490","RCS_SIZE":"LARGE","OBJECT_NAME":"STARLINK-1483","TLE_LINE2":"2 45743  53.0532  96.1743 0001450  66.0223 294.0917 15.06398313127519","ECCENTRICITY":"0.00014500","REF_FRAME":"TEME","CENTER_NAME":"EARTH","MEAN_ELEMENT_THEORY":"SGP4","APOAPSIS":"548.223","LAUNCH_DATE":"2020-06-13","ARG_OF_PERICENTER":"66.0223"},{"FILE":"3591597","TLE_LINE1":"1 45744U 20038Q   22277.77842218  .00001734  00000-0  13526-3 0  9991","OBJECT_ID":"2020-038Q","OBJECT_TYPE":"PAYLOAD","SITE":"AFETR","REV_AT_EPOCH":"12750","MEAN_MOTION_DDOT":"0.0000000000000","DECAY_DATE":null,"TIME_SYSTEM":"UTC","SEMIMAJOR_AXIS":"6925.346","MEAN_ANOMALY":"274.3534","BSTAR":"0.00013526000000","COUNTRY_CODE":"US","ELEMENT_SET_NO":"999","NORAD_CAT_ID":"45744","PERIOD":"95.592","EPOCH":"2022-10-04T18:40:55.676352","GP_ID":"214188208","MEAN_MOTION":"15.06400771","EPHEMERIS_TYPE":"0","CLASSIFICATION_TYPE":"U","PERIAPSIS":"546.093","INCLINATION":"53.0554","TLE_LINE2":"2 45744  53.0554  96.6725 0001614  85.7639 274.3534 15.06400771127507","RA_OF_ASC_NODE":"96.6725","MEAN_MOTION_DOT":"0.00001734","RCS_SIZE":"LARGE","OBJECT_NAME":"STARLINK-1500","REF_FRAME":"TEME","ECCENTRICITY":"0.00016140","MEAN_ELEMENT_THEORY":"SGP4","APOAPSIS":"548.329","CENTER_NAME":"EARTH","ARG_OF_PERICENTER":"85.7639","LAUNCH_DATE":"2020-06-13"}];
